[{"OBJECT_NAME":"APRIZESAT 2","OBJECT_ID":"2004-025A","EPOCH":"2026-03-09T10:28:26.148000","MEAN_MOTION":14.37988294,"ECCENTRICITY":0.01054712,"INCLINATION":98.091,"RA_OF_ASC_NODE":240.1116,"ARG_OF_PERICENTER":190.5785,"MEAN_ANOMALY":169.3185,"EPHEMERIS_TYPE":0,"CLASSIFICATION_TYPE":"U","NORAD_CAT_ID":28366,"ELEMENT_SET_NO":999,"REV_AT_EPOCH":13730,"BSTAR":0.00014374466,"MEAN_MOTION_DOT":4.21e-6,"MEAN_MOTION_DDOT":0},{"OBJECT_NAME":"COSMOS 2251 DEB","OBJECT_ID":"1993-036BNS","EPOCH":"2026-03-06T10:31:54.706368","MEAN_MOTION":14.37615343,"ECCENTRICITY":0.00525954,"INCLINATION":74.0106,"RA_OF_ASC_NODE":110.8563,"ARG_OF_PERICENTER":233.257,"MEAN_ANOMALY":126.3749,"EPHEMERIS_TYPE":0,"CLASSIFICATION_TYPE":"U","NORAD_CAT_ID":37537,"ELEMENT_SET_NO":999,"REV_AT_EPOCH":86236,"BSTAR":0.00022335837,"MEAN_MOTION_DOT":6.54e-6,"MEAN_MOTION_DDOT":0}]
